start=new Date('2021-10-26T00:00:00.000Z').valueOf();
sats=[{"EPOCH":"2021-10-25T06:45:06.397920","OBJECT_ID":"2020-074W","RA_OF_ASC_NODE":"303.1632","CENTER_NAME":"EARTH","PERIAPSIS":"546.318","REF_FRAME":"TEME","LAUNCH_DATE":"2020-10-24","TIME_SYSTEM":"UTC","MEAN_MOTION_DDOT":"0.0000000000000","CLASSIFICATION_TYPE":"U","TLE_LINE1":"1 46759U 20074W   21298.28132405  .00001478  00000-0  11809-3 0  9993","INCLINATION":"53.0552","OBJECT_TYPE":"PAYLOAD","MEAN_ANOMALY":"274.9595","NORAD_CAT_ID":"46759","REV_AT_EPOCH":"5584","BSTAR":"0.00011809000000","GP_ID":"188144476","PERIOD":"95.592","MEAN_MOTION":"15.06400216","ECCENTRICITY":"0.00012920","COUNTRY_CODE":"US","TLE_LINE2":"2 46759  53.0552 303.1632 0001292  85.1541 274.9595 15.06400216 55847","SEMIMAJOR_AXIS":"6925.348","OBJECT_NAME":"STARLINK-1833","FILE":"3183453","EPHEMERIS_TYPE":"0","APOAPSIS":"548.108","SITE":"AFETR","DECAY_DATE":null,"ELEMENT_SET_NO":"999","RCS_SIZE":"LARGE","MEAN_MOTION_DOT":"0.00001478","MEAN_ELEMENT_THEORY":"SGP4","ARG_OF_PERICENTER":"85.1541"},{"ELEMENT_SET_NO":"999","ARG_OF_PERICENTER":"82.8911","RCS_SIZE":"LARGE","MEAN_MOTION_DOT":"0.00000161","MEAN_ELEMENT_THEORY":"SGP4","OBJECT_NAME":"STARLINK-1896","SEMIMAJOR_AXIS":"6925.351","TLE_LINE2":"2 46760  53.0531 302.5377 0001253  82.8911 277.2220 15.06399069 55896","COUNTRY_CODE":"US","FILE":"3183757","EPHEMERIS_TYPE":"0","APOAPSIS":"548.084","DECAY_DATE":null,"SITE":"AFETR","CLASSIFICATION_TYPE":"U","MEAN_MOTION_DDOT":"0.0000000000000","LAUNCH_DATE":"2020-10-24","TIME_SYSTEM":"UTC","REF_FRAME":"TEME","PERIAPSIS":"546.349","NORAD_CAT_ID":"46760","OBJECT_TYPE":"PAYLOAD","MEAN_ANOMALY":"277.2220","INCLINATION":"53.0531","TLE_LINE1":"1 46760U 20074X   21298.42508383  .00000161  00000-0  29706-4 0  9997","GP_ID":"188152308","BSTAR":"0.00002970600000","REV_AT_EPOCH":"5589","ECCENTRICITY":"0.00012530","PERIOD":"95.592","MEAN_MOTION":"15.06399069","EPOCH":"2021-10-25T10:12:07.242912","RA_OF_ASC_NODE":"302.5377","OBJECT_ID":"2020-074X","CENTER_NAME":"EARTH"},{"GP_ID":"188149279","BSTAR":"0.00205830000000","REV_AT_EPOCH":"5623","ECCENTRICITY":"0.00018140","MEAN_MOTION":"15.85975128","PERIOD":"90.796","CLASSIFICATION_TYPE":"U","LAUNCH_DATE":"2020-10-24","MEAN_MOTION_DDOT":"0.0000000000000","TIME_SYSTEM":"UTC","REF_FRAME":"TEME","PERIAPSIS":"312.369","OBJECT_TYPE":"PAYLOAD","NORAD_CAT_ID":"46762","MEAN_ANOMALY":"274.5680","INCLINATION":"53.0552","TLE_LINE1":"1 46762U 20074Z   21298.40539229  .00550166  00000-0  20583-2 0  9997","OBJECT_ID":"2020-074Z","RA_OF_ASC_NODE":"277.3524","CENTER_NAME":"EARTH","EPOCH":"2021-10-25T09:43:45.893856","ELEMENT_SET_NO":"999","ARG_OF_PERICENTER":"85.5551","RCS_SIZE":"LARGE","MEAN_MOTION_DOT":"0.00550166","MEAN_ELEMENT_THEORY":"SGP4","EPHEMERIS_TYPE":"0","APOAPSIS":"314.796","DECAY_DATE":null,"SITE":"AFETR","OBJECT_NAME":"STARLINK-1901","SEMIMAJOR_AXIS":"6691.717","TLE_LINE2":"2 46762  53.0552 277.3524 0001814  85.5551 274.5680 15.85975128 56239","COUNTRY_CODE":"US","FILE":"3183627"},{"ELEMENT_SET_NO":"999","MEAN_MOTION_DOT":"0.00051156","RCS_SIZE":"LARGE","MEAN_ELEMENT_THEORY":"SGP4","ARG_OF_PERICENTER":"77.8841","APOAPSIS":"549.013","EPHEMERIS_TYPE":"0","SITE":"AFETR","DECAY_DATE":null,"COUNTRY_CODE":"US","TLE_LINE2":"2 46763  53.0555 302.7858 0001329  77.8841 282.2297 15.06113138 55870","SEMIMAJOR_AXIS":"6926.228","OBJECT_NAME":"STARLINK-1902","FILE":"3183281","REV_AT_EPOCH":"5587","BSTAR":"0.00345500000000","GP_ID":"188118486","MEAN_MOTION":"15.06113138","PERIOD":"95.610","ECCENTRICITY":"0.00013290","PERIAPSIS":"547.172","REF_FRAME":"TEME","MEAN_MOTION_DDOT":"0.0000000000000","LAUNCH_DATE":"2020-10-24","TIME_SYSTEM":"UTC","CLASSIFICATION_TYPE":"U","TLE_LINE1":"1 46763U 20074AA  21298.37249325  .00051156  00000-0  34550-2 0  9993","INCLINATION":"53.0555","MEAN_ANOMALY":"282.2297","OBJECT_TYPE":"PAYLOAD","NORAD_CAT_ID":"46763","RA_OF_ASC_NODE":"302.7858","OBJECT_ID":"2020-074AA","CENTER_NAME":"EARTH","EPOCH":"2021-10-25T08:56:23.416800"},{"EPHEMERIS_TYPE":"0","APOAPSIS":"548.104","SITE":"AFETR","DECAY_DATE":null,"COUNTRY_CODE":"US","TLE_LINE2":"2 46764  53.0536 303.1560 0001278  82.4234 277.6900 15.06398278 55853","SEMIMAJOR_AXIS":"6925.354","OBJECT_NAME":"STARLINK-1903","FILE":"3183453","ELEMENT_SET_NO":"999","RCS_SIZE":"LARGE","MEAN_MOTION_DOT":"0.00001352","MEAN_ELEMENT_THEORY":"SGP4","ARG_OF_PERICENTER":"82.4234","OBJECT_ID":"2020-074AB","RA_OF_ASC_NODE":"303.1560","CENTER_NAME":"EARTH","EPOCH":"2021-10-25T06:50:26.833920","REV_AT_EPOCH":"5585","BSTAR":"0.00010967000000","GP_ID":"188144976","MEAN_MOTION":"15.06398278","PERIOD":"95.592","ECCENTRICITY":"0.00012780","PERIAPSIS":"546.334","REF_FRAME":"TEME","MEAN_MOTION_DDOT":"0.0000000000000","LAUNCH_DATE":"2020-10-24","TIME_SYSTEM":"UTC","CLASSIFICATION_TYPE":"U","TLE_LINE1":"1 46764U 20074AB  21298.28503280  .00001352  00000-0  10967-3 0  9997","INCLINATION":"53.0536","OBJECT_TYPE":"PAYLOAD","NORAD_CAT_ID":"46764","MEAN_ANOMALY":"277.6900"},{"FILE":"3183453","SEMIMAJOR_AXIS":"6925.365","OBJECT_NAME":"STARLINK-1906","COUNTRY_CODE":"US","TLE_LINE2":"2 46765  53.0569 303.2062 0001279  78.2786 281.8346 15.06394597 55844","DECAY_DATE":null,"SITE":"AFETR","APOAPSIS":"548.116","EPHEMERIS_TYPE":"0","ARG_OF_PERICENTER":"78.2786","MEAN_MOTION_DOT":"0.00001067","RCS_SIZE":"LARGE","MEAN_ELEMENT_THEORY":"SGP4","ELEMENT_SET_NO":"999","EPOCH":"2021-10-25T06:34:30.296064","CENTER_NAME":"EARTH","OBJECT_ID":"2020-074AC","RA_OF_ASC_NODE":"303.2062","OBJECT_TYPE":"PAYLOAD","NORAD_CAT_ID":"46765","MEAN_ANOMALY":"281.8346","TLE_LINE1":"1 46765U 20074AC  21298.27396176  .00001067  00000-0  90525-4 0  9993","INCLINATION":"53.0569","LAUNCH_DATE":"2020-10-24","MEAN_MOTION_DDOT":"0.0000000000000","TIME_SYSTEM":"UTC","CLASSIFICATION_TYPE":"U","PERIAPSIS":"546.344","REF_FRAME":"TEME","ECCENTRICITY":"0.00012790","PERIOD":"95.592","MEAN_MOTION":"15.06394597","BSTAR":"0.00009052500000","GP_ID":"188143724","REV_AT_EPOCH":"5584"},{"REV_AT_EPOCH":"5585","BSTAR":"0.00014217000000","GP_ID":"188143974","MEAN_MOTION":"15.06409864","PERIOD":"95.592","ECCENTRICITY":"0.00013270","PERIAPSIS":"546.264","REF_FRAME":"TEME","TIME_SYSTEM":"UTC","LAUNCH_DATE":"2020-10-24","MEAN_MOTION_DDOT":"0.0000000000000","CLASSIFICATION_TYPE":"U","TLE_LINE1":"1 46766U 20074AD  21298.26658460  .00001837  00000-0  14217-3 0  9998","INCLINATION":"53.0533","MEAN_ANOMALY":"286.0767","OBJECT_TYPE":"PAYLOAD","NORAD_CAT_ID":"46766","RA_OF_ASC_NODE":"303.2520","OBJECT_ID":"2020-074AD","CENTER_NAME":"EARTH","EPOCH":"2021-10-25T06:23:52.909440","ELEMENT_SET_NO":"999","MEAN_MOTION_DOT":"0.00001837","RCS_SIZE":"LARGE","MEAN_ELEMENT_THEORY":"SGP4","ARG_OF_PERICENTER":"74.0368","APOAPSIS":"548.102","EPHEMERIS_TYPE":"0","SITE":"AFETR","DECAY_DATE":null,"COUNTRY_CODE":"US","TLE_LINE2":"2 46766  53.0533 303.2520 0001327  74.0368 286.0767 15.06409864 55858","SEMIMAJOR_AXIS":"6925.318","OBJECT_NAME":"STARLINK-1916","FILE":"3183453"},{"ARG_OF_PERICENTER":"68.8254","RCS_SIZE":"LARGE","MEAN_MOTION_DOT":"0.00001254","MEAN_ELEMENT_THEORY":"SGP4","ELEMENT_SET_NO":"999","DECAY_DATE":null,"SITE":"AFETR","APOAPSIS":"548.177","EPHEMERIS_TYPE":"0","FILE":"3183453","SEMIMAJOR_AXIS":"6925.340","OBJECT_NAME":"STARLINK-1917","COUNTRY_CODE":"US","TLE_LINE2":"2 46767  53.0534 303.1081 0001403  68.8254 291.2885 15.06402734 55859","ECCENTRICITY":"0.00014030","PERIOD":"95.592","MEAN_MOTION":"15.06402734","BSTAR":"0.00010309000000","GP_ID":"188144726","REV_AT_EPOCH":"5585","OBJECT_TYPE":"PAYLOAD","NORAD_CAT_ID":"46767","MEAN_ANOMALY":"291.2885","TLE_LINE1":"1 46767U 20074AE  21298.29607754  .00001254  00000-0  10309-3 0  9993","INCLINATION":"53.0534","TIME_SYSTEM":"UTC","LAUNCH_DATE":"2020-10-24","MEAN_MOTION_DDOT":"0.0000000000000","CLASSIFICATION_TYPE":"U","PERIAPSIS":"546.234","REF_FRAME":"TEME","CENTER_NAME":"EARTH","OBJECT_ID":"2020-074AE","RA_OF_ASC_NODE":"303.1081","EPOCH":"2021-10-25T07:06:21.099456"},{"DECAY_DATE":null,"SITE":"AFETR","APOAPSIS":"548.089","EPHEMERIS_TYPE":"0","FILE":"3183397","SEMIMAJOR_AXIS":"6925.356","OBJECT_NAME":"STARLINK-1918","COUNTRY_CODE":"US","TLE_LINE2":"2 46768  53.0555 303.0898 0001253  77.6221 282.4908 15.06397490 55875","ARG_OF_PERICENTER":"77.6221","RCS_SIZE":"LARGE","MEAN_MOTION_DOT":"-0.00000588","MEAN_ELEMENT_THEORY":"SGP4","ELEMENT_SET_NO":"999","CENTER_NAME":"EARTH","OBJECT_ID":"2020-074AF","RA_OF_ASC_NODE":"303.0898","EPOCH":"2021-10-25T07:11:39.530976","ECCENTRICITY":"0.00012530","PERIOD":"95.592","MEAN_MOTION":"15.06397490","BSTAR":"-0.00002060500000","GP_ID":"188121527","REV_AT_EPOCH":"5587","OBJECT_TYPE":"PAYLOAD","NORAD_CAT_ID":"46768","MEAN_ANOMALY":"282.4908","TLE_LINE1":"1 46768U 20074AF  21298.29976309 -.00000588  00000-0 -20605-4 0  9991","INCLINATION":"53.0555","LAUNCH_DATE":"2020-10-24","MEAN_MOTION_DDOT":"0.0000000000000","TIME_SYSTEM":"UTC","CLASSIFICATION_TYPE":"U","PERIAPSIS":"546.354","REF_FRAME":"TEME"},{"ARG_OF_PERICENTER":"71.1519","MEAN_MOTION_DOT":"-0.00000237","RCS_SIZE":"LARGE","MEAN_ELEMENT_THEORY":"SGP4","ELEMENT_SET_NO":"999","FILE":"3183657","OBJECT_NAME":"STARLINK-1919","SEMIMAJOR_AXIS":"6925.361","TLE_LINE2":"2 46769  53.0543 302.4267 0001358  71.1519 288.9617 15.06396096 55601","COUNTRY_CODE":"US","DECAY_DATE":null,"SITE":"AFETR","APOAPSIS":"548.166","EPHEMERIS_TYPE":"0","OBJECT_TYPE":"PAYLOAD","NORAD_CAT_ID":"46769","MEAN_ANOMALY":"288.9617","INCLINATION":"53.0543","TLE_LINE1":"1 46769U 20074AG  21298.45088406 -.00000237  00000-0  29812-5 0  9992","CLASSIFICATION_TYPE":"U","LAUNCH_DATE":"2020-10-24","MEAN_MOTION_DDOT":"0.0000000000000","TIME_SYSTEM":"UTC","REF_FRAME":"TEME","PERIAPSIS":"546.285","ECCENTRICITY":"0.00013580","MEAN_MOTION":"15.06396096","PERIOD":"95.592","GP_ID":"188150752","BSTAR":"0.00000298120000","REV_AT_EPOCH":"5560","EPOCH":"2021-10-25T10:49:16.382784","CENTER_NAME":"EARTH","RA_OF_ASC_NODE":"302.4267","OBJECT_ID":"2020-074AG"}];
